GLOBALSTAR M024         
1 25883U 99043A   25038.90315064 -.00000105  00000+0 -14420-2 0  9997
2 25883  52.0048 312.3362 0000816 249.0880 188.1111 11.10165901100505
GLOBALSTAR M027         
1 25884U 99043B   25038.70120033 -.00000099  00000+0 -13505-2 0  9991
2 25884  52.0239  27.0997 0021428 142.1641 218.0663 11.04370619126939
GLOBALSTAR M054         
1 25885U 99043C   25038.71771400 -.00000067  00000+0  10923-3 0  9999
2 25885  52.0124 176.0911 0004868 319.7569 148.3426 11.39216382104295
GLOBALSTAR M053         
1 25886U 99043D   25038.39459810 -.00000075  00000+0 -18083-3 0  9997
2 25886  51.9979 116.7590 0003585 207.8025 233.1171 11.27662845104808
GLOBALSTAR M058         
1 25907U 99049A   25038.46455097  .00000006  00000+0  12192-2 0  9994
2 25907  51.9939  95.5681 0001780  43.3047 316.7928 11.93197773526054
GLOBALSTAR M050         
1 25908U 99049B   25038.41863539 -.00000060  00000+0  31457-3 0  9991
2 25908  51.9988 113.0613 0009838 133.0913 309.4202 12.07447956132516
GLOBALSTAR M033         
1 25909U 99049C   25038.85093922 -.00000176  00000+0 -81517-3 0  9992
2 25909  51.9941 352.6391 0013407 358.4506   1.6298 12.20289158519954
GLOBALSTAR M055         
1 25910U 99049D   25038.09449524 -.00000058  00000+0  30737-3 0  9999
2 25910  52.0046  11.8488 0006801 220.8630 139.1712 12.29420346152287
